ONEWEB-0668             
1 56711U 23068B   24266.47794529  .00000265  00000+0  66046-3 0  9993
2 56711  87.9167 354.7809 0002194  85.9518 274.1863 13.16596003 68524
ONEWEB-0676             
1 56712U 23068C   24266.53416396  .00000147  00000+0  34982-3 0  9997
2 56712  87.9167 354.7825 0001435 112.5146 247.6137 13.16594934 69154
ONEWEB-0677             
1 56713U 23068D   24266.61754384  .00000218  00000+0  50521-3 0  9995
2 56713  87.9242  40.2836 0001534  91.6355 268.4954 13.20770507 66306
ONEWEB-0678             
1 56714U 23068E   24266.59119552  .00000034  00000+0  55310-4 0  9993
2 56714  87.9108  25.0545 0002055 109.1993 250.9360 13.15547334 66815
ONEWEB-0679             
1 56715U 23068F   24266.50327885  .00000042  00000+0  76954-4 0  9991
2 56715  87.9163 354.7887 0001602  80.8156 279.3156 13.16597415 68479
ONEWEB-0680             
1 56716U 23068G   24266.72947524  .00000043  00000+0  73426-4 0  9996
2 56716  87.9366   9.9535 0002235  80.7737 279.3649 13.21827570 67549
ONEWEB-0681             
1 56717U 23068H   24266.58831753  .00000157  00000+0  34767-3 0  9997
2 56717  87.9364   9.9600 0000733 105.5677 254.5538 13.21822793 67512
ONEWEB-0682             
1 56718U 23068J   24266.61733430  .00000220  00000+0  55040-3 0  9993
2 56718  87.9104  25.0882 0001903  82.4812 277.6535 13.15546900 66282
